[{"OBJECT_NAME":"BEIDOU-3 G3 (PRN 143)","OBJECT_ID":"2020-040A","EPOCH":"2026-03-06T01:06:21.558240","MEAN_MOTION":1.00274666,"ECCENTRICITY":0.00044882,"INCLINATION":2.1939,"RA_OF_ASC_NODE":67.1333,"ARG_OF_PERICENTER":318.4332,"MEAN_ANOMALY":265.2916,"EPHEMERIS_TYPE":0,"CLASSIFICATION_TYPE":"U","NORAD_CAT_ID":45807,"ELEMENT_SET_NO":999,"REV_AT_EPOCH":2103,"BSTAR":0,"MEAN_MOTION_DOT":-3.59e-6,"MEAN_MOTION_DDOT":0},{"OBJECT_NAME":"GALAXY 30 (WAAS/PRN 135)","OBJECT_ID":"2020-056C","EPOCH":"2026-03-06T04:48:20.311776","MEAN_MOTION":1.00271496,"ECCENTRICITY":0.00020517,"INCLINATION":0.0219,"RA_OF_ASC_NODE":157.5266,"ARG_OF_PERICENTER":197.8268,"MEAN_ANOMALY":115.6677,"EPHEMERIS_TYPE":0,"CLASSIFICATION_TYPE":"U","NORAD_CAT_ID":46114,"ELEMENT_SET_NO":999,"REV_AT_EPOCH":2026,"BSTAR":0,"MEAN_MOTION_DOT":0,"MEAN_MOTION_DDOT":0},{"OBJECT_NAME":"QZS-1R (QZSS/PRN 196)","OBJECT_ID":"2021-096A","EPOCH":"2026-03-05T22:17:38.471136","MEAN_MOTION":1.00290861,"ECCENTRICITY":0.07476496,"INCLINATION":37.247,"RA_OF_ASC_NODE":81.1071,"ARG_OF_PERICENTER":269.7453,"MEAN_ANOMALY":281.4174,"EPHEMERIS_TYPE":0,"CLASSIFICATION_TYPE":"U","NORAD_CAT_ID":49336,"ELEMENT_SET_NO":999,"REV_AT_EPOCH":1597,"BSTAR":0,"MEAN_MOTION_DOT":-2.65e-6,"MEAN_MOTION_DDOT":0},{"OBJECT_NAME":"QZS-6 (QZSS/PRN 200)","OBJECT_ID":"2025-023A","EPOCH":"2026-03-06T02:24:26.612064","MEAN_MOTION":1.00269811,"ECCENTRICITY":0.00018388,"INCLINATION":0.0369,"RA_OF_ASC_NODE":298.431,"ARG_OF_PERICENTER":44.0392,"MEAN_ANOMALY":307.9495,"EPHEMERIS_TYPE":0,"CLASSIFICATION_TYPE":"U","NORAD_CAT_ID":62876,"ELEMENT_SET_NO":999,"REV_AT_EPOCH":392,"BSTAR":0,"MEAN_MOTION_DOT":-2.38e-6,"MEAN_MOTION_DDOT":0}]
