BEIDOU-3 G3             
1 45807U 20040A   26065.04608285 -.00000359  00000+0  00000+0 0  9998
2 45807   2.1939  67.1333 0004488 318.4332 265.2916  1.00274666 21030
GALAXY 30 (G-30)        
1 46114U 20056C   26065.20023509  .00000000  00000+0  00000+0 0  9997
2 46114   0.0219 157.5266 0002051 197.8268 115.6677  1.00271496 20264
QZS-1R (MICHIBIKI-1R)   
1 49336U 21096A   26064.92891749 -.00000265  00000+0  00000+0 0  9992
2 49336  37.2470  81.1071 0747649 269.7453 281.4174  1.00290861 15977
QZS-6 (MICHIBIKI-6)     
1 62876U 25023A   26065.10030801 -.00000238  00000+0  00000+0 0  9995
2 62876   0.0369 298.4310 0001838  44.0392 307.9495  1.00269811  3927
